IRIDIUM 159             
1 43578U 18061K   24123.45007673  .00000271  00000+0  89644-4 0  9991
2 43578  86.4016  20.8941 0002289  90.6382 269.5076 14.34217805302192
IRIDIUM 180             
1 43922U 19002A   24123.58910503  .00000115  00000+0  33961-4 0  9997
2 43922  86.3938 317.7402 0002233  90.0308 270.1143 14.34213035277823
IRIDIUM 176             
1 43923U 19002B   24123.57952816  .00000484  00000+0  72837-4 0  9994
2 43923  86.6066 317.7695 0002437  94.0567 266.0929 14.72237115285136
IRIDIUM 168             
1 43924U 19002C   24123.58275769  .00000127  00000+0  38385-4 0  9995
2 43924  86.3942 317.7985 0002125  91.9323 268.2116 14.34215188277800
IRIDIUM 173             
1 43925U 19002D   24123.57007292  .00000015  00000+0 -18844-5 0  9995
2 43925  86.3934 317.7242 0002107  90.3999 269.7438 14.34215809277780
IRIDIUM 169             
1 43926U 19002E   24123.63584709  .00000336  00000+0  10346-3 0  9998
2 43926  86.4248 349.3110 0003709  55.3274 304.8273 14.38605063278723
IRIDIUM 172             
1 43927U 19002F   24123.63350040  .00000046  00000+0  94956-5 0  9997
2 43927  86.3939 317.7035 0002134  91.9860 268.1580 14.34215869277801
IRIDIUM 175             
1 43928U 19002G   24123.50575569  .00000581  00000+0  88177-4 0  9990
2 43928  86.1466 293.5125 0002357  88.8183 271.3304 14.72246717285117
